OBJECT_NAME,OBJECT_ID,EPOCH,MEAN_MOTION,ECCENTRICITY,INCLINATION,RA_OF_ASC_NODE,ARG_OF_PERICENTER,MEAN_ANOMALY,EPHEMERIS_TYPE,CLASSIFICATION_TYPE,NORAD_CAT_ID,ELEMENT_SET_NO,REV_AT_EPOCH,BSTAR,MEAN_MOTION_DOT,MEAN_MOTION_DDOT
SAUDISAT 2,2004-025F,2026-06-17T20:28:39.009792,14.56684246,.00235707,98.5507,168.8523,296.1156,63.7616,0,U,28371,999,16584,.52852686E-4,.187E-5,0
COSMOS 2407,2004-028A,2026-06-17T20:49:27.641856,13.76334776,.0037848,82.9607,74.3302,249.9655,181.1646,0,U,28380,999,9997,.48200696E-4,.62E-6,0
COSMOS 2414,2005-002A,2026-06-17T18:04:22.986912,13.87926561,.00394496,82.9498,43.2186,329.6441,30.2438,0,U,28521,999,8389,.28556636E-4,.5E-6,0
INMARSAT 4-F1,2005-009A,2026-06-17T18:56:57.482880,1.00270902,.00025587,5.1694,42.7638,44.0932,281.5313,0,U,28628,999,7767,0,.25E-6,0
SJ-7,2005-024A,2026-06-17T14:48:06.825024,15.21549194,.00163052,97.7279,198.7320,36.6891,323.5457,0,U,28737,999,14809,.29186641E-3,.6526E-4,0
CUBESAT XI-V,2005-043F,2026-06-17T21:04:39.148896,14.72633171,.00136992,98.2987,324.5146,198.4273,161.6440,0,U,28895,999,10185,.18293518E-3,.1113E-4,0
HINODE (SOLAR-B),2006-041A,2026-06-17T15:53:42.232704,14.68623570,.00160013,98.0547,184.8078,288.1134,71.8328,0,U,29479,999,5494,.96583332E-4,.513E-5,0
SHIJIAN-6 02B (SJ-6 02B),2006-046B,2026-06-17T22:42:28.101312,15.01378369,.00154058,97.7153,198.0002,58.2945,301.9778,0,U,29506,999,7085,.76062225E-4,.922E-5,0
DMSP 5D-3 F17 (USA 191),2006-050A,2026-06-17T22:44:25.779840,14.14993062,.00111479,98.7378,175.5021,57.3902,302.8346,0,U,29522,999,1253,.11263753E-4,-.21E-6,0
LAPAN-TUBSAT,2007-001A,2026-06-17T23:52:53.980608,14.85948421,.00119329,98.1337,168.2371,176.7595,183.3699,0,U,29709,999,5127,-.25771112E-4,-.283E-5,0
HAIYANG-1B,2007-010A,2026-06-17T21:56:03.475968,14.31027083,.00130613,98.3495,150.7309,194.0963,165.9858,0,U,31113,999,74,.43338499E-4,.72E-6,0
COSMO-SKYMED 2,2007-059A,2026-06-17T23:18:29.329056,14.82155580,.00013453,97.8886,352.5577,87.9513,272.1854,0,U,32376,999,212,.44108391E-4,.299E-5,0
CARTOSAT-2A,2008-021A,2026-06-17T22:13:17.006592,14.79239310,.00132189,97.7630,217.6092,106.5246,253.7419,0,U,32783,999,97891,.47124093E-4,.3E-5,0
CUTE-1.7+APD II (CO-65),2008-021C,2026-06-17T21:52:49.273824,15.09456805,.00096727,97.8273,150.3452,36.6231,323.5656,0,U,32785,999,98530,.26784396E-3,.4224E-4,0
SEEDS II (CO-66),2008-021J,2026-06-17T12:39:16.219584,15.32761121,.0001013,97.7515,166.4411,2.1401,357.9844,0,U,32791,999,98734,.46558E-3,.14659E-3,0
YUBILEINY (RS30),2008-025A,2026-06-17T21:40:40.182240,12.43179370,.0018819,82.5037,354.9945,312.2470,47.7013,0,U,32953,999,81978,-.1181843E-3,-.7E-7,0
FENGYUN 3A,2008-026A,2026-06-17T19:44:36.909024,14.19571285,.00096151,98.6883,109.6439,121.9890,238.2222,0,U,32958,999,93549,.46601221E-4,.55E-6,0
HUANJING 1A (HJ-1A),2008-041A,2026-06-17T23:24:39.453696,14.83986592,.00199988,97.6677,154.7831,132.3724,227.9188,0,U,33320,999,95852,.10474916E-3,.823E-5,0
HUANJING 1B (HJ-1B),2008-041B,2026-06-17T22:40:38.051040,14.83319529,.00361276,97.6514,157.9234,178.3753,181.7585,0,U,33321,999,95852,.12333492E-3,.969E-5,0
SHIJIAN-6 03A (SJ-6 03A),2008-053A,2026-06-17T21:44:56.927616,15.17170368,.00115914,97.8402,202.2518,17.9497,342.2142,0,U,33408,999,96307,.21223511E-3,.4147E-4,0
SHIJIAN-6 03B (SJ-6 03B),2008-053B,2026-06-17T23:08:56.760576,15.04308083,.00207585,97.8567,188.8691,42.5835,317.6995,0,U,33409,999,96286,.41417708E-4,.514E-5,0
